[{"OBJECT_NAME":"GLOBAL-4","OBJECT_ID":"2019-054E","EPOCH":"2026-03-09T08:50:03.339744","MEAN_MOTION":15.55419748,"ECCENTRICITY":0.00055925,"INCLINATION":45.007,"RA_OF_ASC_NODE":88.4746,"ARG_OF_PERICENTER":7.6875,"MEAN_ANOMALY":352.4104,"EPHEMERIS_TYPE":0,"CLASSIFICATION_TYPE":"U","NORAD_CAT_ID":44499,"ELEMENT_SET_NO":999,"REV_AT_EPOCH":36477,"BSTAR":0.00061659402,"MEAN_MOTION_DOT":0.00042886,"MEAN_MOTION_DDOT":0},{"OBJECT_NAME":"STARLINK-1193","OBJECT_ID":"2020-006BJ","EPOCH":"2026-03-10T00:00:02.999808","MEAN_MOTION":15.55787622,"ECCENTRICITY":0.00018468,"INCLINATION":53.052,"RA_OF_ASC_NODE":228.9273,"ARG_OF_PERICENTER":4.2814,"MEAN_ANOMALY":156.1265,"EPHEMERIS_TYPE":0,"CLASSIFICATION_TYPE":"U","NORAD_CAT_ID":45100,"ELEMENT_SET_NO":999,"REV_AT_EPOCH":587,"BSTAR":0.0019633041,"MEAN_MOTION_DOT":0.00139916,"MEAN_MOTION_DDOT":0}]
